"id";"full_name";"username";"email_id";"phnumber";"DOB";"country";"state";"city";"pincode";"password";"isAdmin";"enabled2FA";"email_verified";"profile_image";"createdAt";"updatedAt"
1;"Jyotishankar Panda";"admin123";"jyotishankarpanda55@gmail.com";"9556443112";"2000-02-14";"France";"HR";"Huelsview";"412591";"$2b$10$qhDh.ICSZzlm5htW1xBowuDEekafrXNr67Tux5gzk0mWIb8MP8tfq";1;1;1;"";"2022-12-13 12:48:19";"2022-12-13 12:48:19"
2;"Mr. Nick Weber";"admin111";"jyotishankarpanda55@gmail.com";"8173761797";"2020-12-28";"Uganda";"LR";"Lake Enos";"705154";"$2b$10$GBCtmkNJTFyOgmb8ph4bseH4RjCOjQXCOjT5adGq0YgzpTDokhkcO";0;0;0;"";"2022-12-13 12:48:21";"2022-12-13 12:48:21"
3;"Hugh Cummerata";"Korbin70";"jyotishankarpanda55@gmail.com";"9961442775";"1979-1-18";"Cape Verde";"LC";"East Eltashire";"684015";"$2b$10$wLc7XE.e27mPpUDRMFLe0.qYnohdM1Im0xT9paLJwR.21u761wtp2";0;0;0;"";"2022-12-13 12:48:22";"2022-12-13 12:48:22"
4;"Douglas Nolan MD";"Janiya.Nitzsche";"jyotishankarpanda55@gmail.com";"9787412362";"1993-10-6";"Wallis and Futuna";"FM";"Koelpinside";"357801";"$2b$10$a2QHSxMA01vmFALpJ.b4QOTDMX3gg/73PKILHDNk8ZgrAu3jRahR6";0;0;0;"";"2022-12-13 12:48:22";"2022-12-13 12:48:22"
5;"William Daniel V";"Charlene_Botsford";"jyotishankarpanda55@gmail.com";"7364174383";"1972-8-11";"Russian Federation";"UG";"Port Meta";"645529";"$2b$10$WOVKxEdEyba4burEHD3nIuyc5eETCmiaFo6etqmQkz6HHc8Gzim8u";0;0;0;"";"2022-12-13 12:48:23";"2022-12-13 12:48:23"
6;"Clint Murray";"Natalia_Rodriguez28";"Jordane6@yahoo.com";"7733632814";"2022-9-27";"Jordan";"KI";"Port Sam";"165827";"$2b$10$gbwfeQNeejcn79md5JPNSO4bN1cM2WXRuemTV0ZLFqvHxgfE3.rVq";0;0;0;"";"2022-12-13 12:48:24";"2022-12-13 12:48:24"
7;"Colleen Kohler";"Evalyn_Reichert30";"Scotty.Stracke46@hotmail.com";"9429049522";"1964-9-6";"Pitcairn Islands";"IM";"Port Eleanoraside";"154799";"$2b$10$VlhEo4daTkz1raQU/dLUIusPrHbis7jYKldIOh9b/biaEJh3/qyeq";0;0;0;"";"2022-12-13 12:48:25";"2022-12-13 12:48:25"
8;"Olive Weissnat";"Russell_Herzog3";"Felicita_Kuhic39@hotmail.com";"8270342612";"2020-10-18";"Myanmar";"CF";"Gaylordland";"585736";"$2b$10$dtdvxks6rqWEbJe2QoOyRuf79NLEHOpnFnlBsALSSTjBVkCsL8abe";0;0;0;"";"2022-12-13 12:48:26";"2022-12-13 12:48:26"
9;"Loren Padberg";"Cecile95";"Shanon_Auer@gmail.com";"7899762610";"1963-10-7";"Zimbabwe";"PN";"Chapel Hill";"271889";"$2b$10$F0B8Q5J9VNIAyp9n8YXmMed.D0v0.zqvZQDh7Zk6ZH/qN9iExYdG6";0;0;0;"";"2022-12-13 12:48:26";"2022-12-13 12:48:26"
10;"Linda Jerde";"Enid_Aufderhar";"Dariana12@yahoo.com";"8259516095";"2013-4-28";"Congo";"AW";"Port Catherine";"356514";"$2b$10$977BdJIU7BNv.xNJiRQfZeR8MUOhP3gQbXNh4OTvM7SYZXYl/VaNO";0;0;0;"";"2022-12-13 12:48:27";"2022-12-13 12:48:27"
11;"Christian Zulauf";"Santina.Fadel";"Freida_Volkman56@yahoo.com";"9348718803";"1972-2-30";"Mexico";"CV";"East Nya";"798347";"$2b$10$qVxc0lpwXSkX9uYtrX5/1eOjub69p4ezh5Eu4SND4ttSJgKf9FSli";0;0;0;"";"2022-12-13 12:48:27";"2022-12-13 12:48:27"
12;"Shawna Green";"Larry_Bahringer";"Audreanne44@gmail.com";"8652945635";"1950-5-20";"Cook Islands";"CR";"Vicentashire";"470589";"$2b$10$SpvkikjBFSC3h5ZRE0EmY.wcznNuANcr3Hjssdbp9xUwEYwRk7Z8.";0;0;0;"";"2022-12-13 12:48:28";"2022-12-13 12:48:28"
13;"Mamie Leffler";"Wiley_Weimann31";"Lacey41@gmail.com";"8346489142";"1997-2-8";"Antarctica (the territory South of 60 deg S)";"MY";"West Portertown";"254303";"$2b$10$HDi3JMnZh8sdLbZfTx/zBu/fe59Kfo2Z/iC20RMaxZ6ZScwFQEZV2";0;0;0;"";"2022-12-13 12:48:29";"2022-12-13 12:48:29"
14;"Crystal Barrows";"Sherman.Considine24";"Zechariah26@hotmail.com";"9971843521";"1984-6-14";"Equatorial Guinea";"NA";"Boydborough";"310661";"$2b$10$wwwV3OYA8F78mDNRv2IoneylM/FyJpUQPM5U.rzkQkVAqWmuAfIUe";0;0;0;"";"2022-12-13 12:48:29";"2022-12-13 12:48:29"
15;"Albert Lesch";"Walter25";"Morgan.Mayer63@hotmail.com";"9803335422";"1956-11-1";"Cape Verde";"GI";"West Monserrate";"304275";"$2b$10$mzH/lQ2zNg5Bya7tgz9H5e5Fp/uUSuJv5023M6AwrUsRKIIqeI8qi";0;0;0;"";"2022-12-13 12:48:30";"2022-12-13 12:48:30"
16;"Rachel Braun DDS";"Pattie.Cormier31";"Ludwig_Upton8@yahoo.com";"8970329939";"1979-10-15";"French Southern Territories";"GP";"Salina";"412425";"$2b$10$/fdWC7PNYoQj7XzTG7Y/ne24IooIGZLjREak7yRICvolNtvVVlwZu";0;0;0;"";"2022-12-13 12:48:31";"2022-12-13 12:48:31"
17;"Clara Toy";"Jaron84";"Julie_Hyatt@gmail.com";"7777863492";"1960-3-16";"Western Sahara";"SH";"Binghamton";"807734";"$2b$10$sm0/QexWznwvAKhxz3TCROUY7Xg8nLeadNLC4Zd4zmJFx8Ip1PKGS";0;0;0;"";"2022-12-13 12:48:31";"2022-12-13 12:48:31"
18;"Lana Kuhic";"Ivah_Okuneva";"Obie.Kuvalis98@hotmail.com";"7078634044";"1956-1-6";"France";"BD";"Cristinaborough";"444015";"$2b$10$4LPkM7oVDe4GPTla6YFlOebK7RVGpSr4iFIhDVlxjDWmywsFnMbr.";0;0;0;"";"2022-12-13 12:48:32";"2022-12-13 12:48:32"
19;"Jermaine Koss";"Brenda_Lynch";"Pablo.Harber@yahoo.com";"9082647566";"1955-6-3";"Netherlands";"AQ";"Majortown";"678011";"$2b$10$clBRko7RPm4g/y2X5OoR6uaeFO4wJ6wl0.mO81EA6APe7j1LEb54W";0;0;0;"";"2022-12-13 12:48:32";"2022-12-13 12:48:32"
20;"Dr. Marianne Hickle";"Julio_Koss";"Roy.Moore37@hotmail.com";"8100788360";"1995-2-2";"San Marino";"PA";"New Brownmouth";"601170";"$2b$10$Uou3gC1Ld8gWZix3kYdToeBleGd59mkZbaMOF57V0it6LZ0cxmm2i";0;0;0;"";"2022-12-13 12:48:33";"2022-12-13 12:48:33"
171;"Ethel Wuckert";"Rubye_Mitchell";"Meagan24@yahoo.com";"8641546831";"";"";"";"";"";"$2b$10$jOEOjWAXOIOPrR69AgCCbuirteluD95mlm8Pnbwz61upQnoK1Qbua";0;0;0;"";"2023-02-02 08:43:39";"2023-02-02 08:43:39"
172;"Margie Ziemann";"Berenice31";"Zena_Jacobs31@hotmail.com";"9510984446";"";"";"";"";"";"$2b$10$Pu/suwKKpM/7Z.OIvlz5D.zVUC8oVncZVvMH3.lLioRiVUxrIPHWy";0;0;0;"";"2023-02-02 08:43:53";"2023-02-02 08:43:53"
173;"Carole Schoen";"Duane.Rice";"Marta.Beier63@gmail.com";"9484243543";"";"";"";"";"";"$2b$10$yFMjFRVrOPj96NQMqWjKMOaUM5W5fWzcLLgvLRIuGcCS7GwCOSAIK";0;0;0;"";"2023-02-02 08:44:13";"2023-02-02 08:44:13"
174;"Jody Gaylord";"Frieda.Hermann";"Shawna_Dibbert@hotmail.com";"7795334032";"";"";"";"";"";"$2b$10$kT.neA4YAqaiXdeDt74Kl.aoMr9kEqAFzRmSQeD5V4xvi91tTt2vy";0;0;0;"";"2023-02-02 08:44:40";"2023-02-02 08:44:40"
175;"Keith Mayert";"Doyle.Abernathy98";"Marian2@gmail.com";"9682345553";"1966-1-9";"Luxembourg";"GF";"Kevonmouth";"239683";"$2b$10$UrI2ZMW.I0koeZW5xj8vyu/DDYIYHkoOvSnIFtrOR0QS.gHC6liLy";0;0;0;"";"2023-02-02 08:44:53";"2023-02-02 08:44:53"
176;"react 01";"reactjs01";"react@gmail.com";"9556443112";"";"";"";"";"";"$2b$10$YMNAArRKKq2g4vC663OUwuGswaj1QLfciDeQtcELAO7/WAA/68krK";0;0;0;"";"2023-02-02 09:01:10";"2023-02-02 09:01:10"
177;"react 01";"reactjs01";"react@gmail.com";"9556443112";"";"";"";"";"";"$2b$10$YgxliK6kfFylRzX.Zzo8WOw131ODBiYS7a80cZuBpYe66MgYZRdyu";0;0;0;"";"2023-02-02 09:11:42";"2023-02-02 09:11:42"
178;"react 01";"reactjs01";"react@gmail.com";"9556443112";"";"";"";"";"";"$2b$10$m5RdBqnJuTUoJhdP.cucVuESXwyY6x9/lJvI1r4PJESXBqj0ITOhG";0;0;0;"";"2023-02-02 09:12:23";"2023-02-02 09:12:23"
179;"react 02";"reactjs02";"react02@gmail.com";"9556443112";"";"";"";"";"";"$2b$10$/sF1qwFdQTqlHNWfeLctvO6NrUod/GhaALm3iJAj5LMKKI97IcyhK";0;0;0;"";"2023-02-02 09:17:47";"2023-02-02 09:17:47"
180;"indigo";"indigo99";"indigo@gmail.com";"8523697410";"";"";"";"";"";"$2b$10$l13.e/YZKf970PAIH31bduJRjGGoiUqGj2ixJ63fiS56MvbgqFjXC";0;0;0;"";"2023-02-02 12:08:30";"2023-02-02 12:08:30"
181;"aabbccss";"Redirect";"Redirect@gmail.com";"9632589635";"";"";"";"";"";"$2b$10$4thq.Q2mDy2TargRIpZQR.03kys66MJk0JHGTCbYdu55F2OJcz/72";0;0;0;"";"2023-02-02 12:22:56";"2023-02-02 12:22:56"
182;"Kristen Lind";"Courtney.Hansen1";"Elmo_Haag8@yahoo.com";"7332511532";"1973-8-26";"Aruba";"VA";"North Deshaunfurt";"693352";"$2b$10$FRoc48gbWAgK7kLXfaCRsewklcrMRd3QeJf7cqG8u5TYs4Q5vwxnm";0;0;0;"";"2023-02-02 12:27:53";"2023-02-02 12:27:53"
183;"Martha Bauch";"Zane.Hills24";"Madelyn48@hotmail.com";"7042960824";"1997-4-30";"Lebanon";"LI";"Autumnmouth";"679567";"$2b$10$GnCtPtraoRGuffmpkqUl9uBoCbJ2nvGhL/EijkUPla0xYN40aPVgi";0;0;0;"";"2023-02-02 12:28:28";"2023-02-02 12:28:28"
184;"Maggie Kub";"Name_Grimes";"Devin_Green@yahoo.com";"9881052690";"1961-6-26";"Greece";"NO";"West Alexys";"267026";"$2b$10$nic2w/lEB6d2zGKzaNic1OLCtoEapHlL47ajS9s49QqGcI62q.Q8m";0;0;0;"";"2023-02-02 12:28:38";"2023-02-02 12:28:38"
185;"Ms. Pedro Tremblay";"Nicholas62";"Nikko.Hodkiewicz@hotmail.com";"8921094975";"2022-11-20";"Maldives";"JM";"Roswell";"330315";"$2b$10$iiu2ihEtVoRSbOGUXhGltOcqHAcxfsKrar.KyozFKK2nRkSRfzVca";0;0;0;"";"2023-02-02 12:29:09";"2023-02-02 12:29:09"
186;"Ms. Kyle Dibbert";"Ima.Blick";"Desiree_Crona@gmail.com";"8060031592";"1969-11-30";"Kenya";"NA";"New Madelynn";"254202";"$2b$10$TX8l2z6swASB/JGLS4C/zuDTxh3bylnSApz.joY2zXSYloYRz51xO";0;0;0;"";"2023-02-02 12:29:53";"2023-02-02 12:29:53"
187;"aabbccss";"Redirect";"Redirect@gmail.com";"9632589635";"";"";"";"";"";"$2b$10$8VTjkzMkez.foA76NB/nGu1MVjLY00zH0kJrwZeoqlYf2iGEJjbL6";0;0;0;"";"2023-02-02 12:30:21";"2023-02-02 12:30:21"
188;"gsgser";"sergsregserg";"sergsegtrser@gmail.com";"4644546544";"";"";"";"";"";"$2b$10$0VuPUm5zCRgIUn7738yhgONavARvr/M190AOu3qTt6l5VJc69gbAW";0;0;0;"";"2023-02-02 12:31:06";"2023-02-02 12:31:06"
189;"gsfdgsdfg";"dgfdghd";"fghdfghdfgh@gmail.com";"9876543215";"";"";"";"";"";"$2b$10$cpgMIFyzqGcwHRNNcDcx8.F1RIYEUjyw6qG85qHsqDwtovLXDVKbu";0;0;0;"";"2023-02-02 12:34:08";"2023-02-02 12:34:08"
190;"amitpatra";"drthdrthdrth";"drthdrthdrt@gmail.com";"9874563125";"";"";"";"";"";"$2b$10$G/Mc5l3ORcuNi3uch3om1.ZkYiV63mE82hhFQU2VoP2mo1/eGtlDu";0;0;0;"";"2023-02-02 12:41:10";"2023-02-02 12:41:10"
191;"rio5555";"rio5555";"rio5555@gmail.com";"9556443112";"";"";"";"";"";"$2b$10$NnLqlj21OTDAgpAAkehiE.XL4oM4RwfVgPwH/VGJuUkrGinDgft5m";0;0;0;"";"2023-02-03 05:18:56";"2023-02-03 05:18:56"
192;"rio5555";"rio5555";"rio5555@gmail.com";"9556443112";"";"";"";"";"";"$2b$10$pLQfdO/FXOPwUtIuCt6Pu.MnMLSfekZTnWUkWJ0YQdxSod7NmXnBy";0;0;0;"";"2023-02-03 05:20:46";"2023-02-03 05:20:46"
193;"gvsrevsevsers";"gvsrevsevsers";"gvsrevsevsers@gmail.com";"8523697415";"";"";"";"";"";"$2b$10$gfvAfN8yUgrKbM.RMS.bHuqkY7if428lfLsaKzRyDdGlqhhl/tqNS";0;0;0;"";"2023-02-03 08:01:25";"2023-02-03 08:01:25"
